{"epoch":1784799577,"count":18318,"objects":[{"id":"7530","name":"OSCAR 7","type":"PAYLOAD","l1":"1 07530U 74089B   26203.90479234 -.00000041  00000-0  32957-4 0  9990","l2":"2 07530 101.9908 217.5239 0012611  64.1203  53.3684 12.53698645364990"},{"id":"14129","name":"OSCAR 10","type":"PAYLOAD","l1":"1 14129U 83058B   26202.35803166  .00000044  00000-0  00000-0 0  9993","l2":"2 14129  25.9422 213.9384 5999429 125.0554 306.6315  2.05869545296197"},{"id":"14781","name":"OSCAR 11 (UOSAT 2)","type":"PAYLOAD","l1":"1 14781U 84021B   26203.25715222  .00001166  00000-0  12393-3 0  9990","l2":"2 14781  97.8082 168.4468 0009119  71.8134 288.4076 14.90861576262358"},{"id":"20442","name":"OSCAR 19 (LUSAT)","type":"PAYLOAD","l1":"1 20442U 90005G   26203.48481344  .00000064  00000-0  39421-4 0  9998","l2":"2 20442  98.8846 226.2617 0012679 101.8780 258.3826 14.34132172907450"},{"id":"22825","name":"EYESAT A","type":"PAYLOAD","l1":"1 22825U 93061C   26203.59098792  .00000052  00000-0  36652-4 0  9993","l2":"2 22825  98.6861 270.9883 0008329   4.7380 355.3880 14.30950444712062"},{"id":"22826","name":"ITAMSAT","type":"PAYLOAD","l1":"1 22826U 93061D   26203.90934388  .00000046  00000-0  34373-4 0  9990","l2":"2 22826  98.6808 271.2277 0008471 346.4195  13.6759 14.31378258712420"},{"id":"23439","name":"RADIO ROSTO","type":"PAYLOAD","l1":"1 23439U 94085A   26203.76899263 -.00000034  00000-0  22830-3 0  9996","l2":"2 23439  64.8139 245.6715 0157208 357.3156   2.6910 11.27583648299910"},{"id":"24278","name":"JAS 2","type":"PAYLOAD","l1":"1 24278U 96046B   26203.79876109 -.00000045  00000-0 -92430-5 0  9992","l2":"2 24278  98.5216  47.7891 0349989   4.2267 356.1699 13.53275817477981"},{"id":"25397","name":"TECHSAT 1B","type":"PAYLOAD","l1":"1 25397U 98043D   26203.46678159  .00000036  00000-0  35822-4 0  9992","l2":"2 25397  99.0091 197.1189 0002327 103.4335 256.7103 14.24434333456353"},{"id":"25544","name":"ISS (ZARYA)","type":"PAYLOAD","l1":"1 25544U 98067A   26203.79832414  .00009714  00000-0  18351-3 0  9993","l2":"2 25544  51.6313 123.8641 0006897 326.7338  33.3216 15.49102905577270"},{"id":"26931","name":"PCSAT","type":"PAYLOAD","l1":"1 26931U 01043C   26203.57078425  .00000104  00000-0  69793-4 0  9993","l2":"2 26931  67.0504 152.7531 0005854 267.2879  92.7553 14.31967120295519"},{"id":"27607","name":"SAUDISAT 1C","type":"PAYLOAD","l1":"1 27607U 02058C   26203.89361264  .00000881  00000-0  12126-3 0  9991","l2":"2 27607  64.5523  18.5035 0074291 255.8641 103.4202 14.83110206269752"},{"id":"27844","name":"CUTE-1","type":"PAYLOAD","l1":"1 27844U 03031E   26203.79315134  .00000212  00000-0  11057-3 0  9990","l2":"2 27844  98.6747 211.9055 0010855  83.1937 277.0476 14.24354881196741"},{"id":"27848","name":"CUBESAT XI 4","type":"PAYLOAD","l1":"1 27848U 03031J   26202.46414799  .00000171  00000-0  94004-4 0  9992","l2":"2 27848  98.6777 210.2780 0010700 103.0346 257.2027 14.23636890196250"},{"id":"27939","name":"MOZHAYETS 4","type":"PAYLOAD","l1":"1 27939U 03042A   26203.94524788  .00000803  00000-0  13172-3 0  9997","l2":"2 27939  98.3486  29.3172 0011810 149.3014 348.1826 14.73523583220813"},{"id":"28895","name":"CUBESAT XI 5","type":"PAYLOAD","l1":"1 28895U 05043F   26202.37477685  .00000932  00000-0  15414-3 0  9995","l2":"2 28895  98.3024 358.7230 0015344  97.2573 263.0378 14.72712744106788"},{"id":"32785","name":"CUTE-1.7+APD 2","type":"PAYLOAD","l1":"1 32785U 08021C   26203.90935349  .00005457  00000-0  34214-3 0  9999","l2":"2 32785  97.8297 186.0837 0006951 266.6067  93.4367 15.09749058990587"},{"id":"32791","name":"SEEDS","type":"PAYLOAD","l1":"1 32791U 08021J   26203.44081651  .00019519  00000-0  59788-3 0  9990","l2":"2 32791  97.7536 203.0544 0003833 141.9870 218.1643 15.33845449992692"},{"id":"32953","name":"YUBELEINY","type":"PAYLOAD","l1":"1 32953U 08025A   26203.91121148  .00000102  00000-0  66644-3 0  9999","l2":"2 32953  82.5068 333.2181 0018823 231.2638 128.6760 12.43181284824133"},{"id":"33499","name":"KKS-1 (KISEKI)","type":"PAYLOAD","l1":"1 33499U 09002H   26203.87775289  .00001065  00000-0  13722-3 0  9995","l2":"2 33499  98.1169 126.8851 0008046 164.0131 196.1337 14.83202864941483"},{"id":"35932","name":"SWISSCUBE","type":"PAYLOAD","l1":"1 35932U 09051B   26203.67653410  .00000737  00000-0  15493-3 0  9994","l2":"2 35932  98.3999 112.1787 0008098  99.2605 260.9512 14.62540683894346"},{"id":"35933","name":"BEESAT","type":"PAYLOAD","l1":"1 35933U 09051C   26203.84145627  .00000667  00000-0  14346-3 0  9998","l2":"2 35933  98.3927 111.9069 0006451 110.1032 250.0863 14.61770632894398"},{"id":"35935","name":"ITUPSAT 1","type":"PAYLOAD","l1":"1 35935U 09051E   26203.72659903  .00000550  00000-0  12334-3 0  9990","l2":"2 35935  98.4011 110.9439 0008488 122.2889 237.9135 14.60486457893923"},{"id":"36122","name":"XIWANG-1 (HOPE-1)","type":"PAYLOAD","l1":"1 36122U 09072B   26203.96346326 -.00000282  00000-0 -62132-3 0  9995","l2":"2 36122 100.4040 157.2272 0007752 147.4575 212.7017 13.16439539797710"},{"id":"37224","name":"O/OREOS (USA 219)","type":"PAYLOAD","l1":"1 37224U 10062C   26203.42053629  .00001606  00000-0  15681-3 0  9998","l2":"2 37224  71.9704   0.5182 0014482 351.1937   8.8977 14.93871007121904"},{"id":"37839","name":"JUGNU","type":"PAYLOAD","l1":"1 37839U 11058B   26203.94713903  .00000401  00000-0  70021-4 0  9993","l2":"2 37839  19.9608  91.1655 0018657 111.5761 351.8524 14.13785237764096"},{"id":"37841","name":"SRMSAT","type":"PAYLOAD","l1":"1 37841U 11058D   26203.73053212  .00000352  00000-0  46977-4 0  9991","l2":"2 37841  19.9701 204.3328 0011565 234.5012 307.5030 14.11582174762848"},{"id":"39090","name":"STRAND 1","type":"PAYLOAD","l1":"1 39090U 13009E   26203.42364014  .00000224  00000-0  89597-4 0  9991","l2":"2 39090  98.3941  22.7940 0009711 121.7520 238.4615 14.37181962702120"},{"id":"39417","name":"ZACUBE","type":"PAYLOAD","l1":"1 39417U 13066B   26201.86646474  .00001847  00000-0  14537-3 0  9999","l2":"2 39417  97.7999 164.3670 0044079 137.0238 223.4444 15.01347026685787"},{"id":"39430","name":"GOMX 1","type":"PAYLOAD","l1":"1 39430U 13066Q   26203.93331652  .00000848  00000-0  13411-3 0  9993","l2":"2 39430  97.6471  42.1406 0127590 323.2817  35.9698 14.69553988675165"}]}